NORAD_CAT_ID,OBJECT_NAME,OBJECT_TYPE,EPOCH,MEAN_MOTION,ECCENTRICITY,INCLINATION,RA_OF_ASC_NODE,ARG_OF_PERICENTER,MEAN_ANOMALY,BSTAR,MEAN_MOTION_DOT,MEAN_MOTION_DDOT,TLE_LINE0,TLE_LINE1,TLE_LINE2,SEMIMAJOR_AXIS,PERIOD,APOGEE,PERIGEE,DECAYED
55925.0,STARLINK-5922,PAYLOAD,2023-06-17 12:40:24,14.98320732,0.0003038,69.9998,296.0536,268.8624,91.2187,-0.00012731,-1.611e-05,0.0,0 STARLINK-5922,1 55925U 23037M   23168.52806167 -.00001611  00000-0 -12731-3 0  9994,2 55925  69.9998 296.0536 0003038 268.8624  91.2187 14.98320732 14618,6950.222,96.108,574.198,569.975,0.0
55925.0,STARLINK-5922,PAYLOAD,2023-06-17 19:04:56,14.98319561,0.0003083,69.9997,295.3799,270.7531,89.3275,-0.00013293,-1.678e-05,0.0,0 STARLINK-5922,1 55925U 23037M   23168.79510400 -.00001678  00000-0 -13293-3 0  9992,2 55925  69.9997 295.3799 0003083 270.7531  89.3275 14.98319561 14310,6950.225,96.108,574.233,569.947,0.0
55925.0,STARLINK-5922,PAYLOAD,2023-06-18 07:54:00,14.98332043,0.0003139,69.9996,294.0329,266.6771,93.4029,-4.148e-05,-5.88e-06,0.0,0 STARLINK-5922,1 55925U 23037M   23169.32917458 -.00000588  00000-0 -41480-4 0  9995,2 55925  69.9996 294.0329 0003139 266.6771  93.4029 14.98332043 14735,6950.187,96.107,574.233,569.87,0.0
55925.0,STARLINK-5922,PAYLOAD,2023-06-18 14:18:32,14.98333309,0.0003085,70.0001,293.3602,266.2611,93.8196,-8.4615e-06,-1.94e-06,0.0,0 STARLINK-5922,1 55925U 23037M   23169.59621259 -.00000194  00000-0 -84615-5 0  9996,2 55925  70.0001 293.3602 0003085 266.2611  93.8196 14.98333309 14432,6950.183,96.107,574.192,569.904,0.0
55925.0,STARLINK-5922,PAYLOAD,2023-06-19 14:20:33,14.98328733,0.0003412,69.9993,290.8348,270.2983,89.7785,0.00013431,1.51e-05,0.0,0 STARLINK-5922,1 55925U 23037M   23170.59761067  .00001510  00000-0  13431-3 0  9997,2 55925  69.9993 290.8348 0003412 270.2983  89.7785 14.98328733 14588,6950.197,96.107,574.433,569.69,0.0
55925.0,STARLINK-5922,PAYLOAD,2023-06-20 06:21:54,14.98326116,0.0003332,69.9994,289.1518,269.4038,90.6739,2.3278e-05,1.85e-06,0.0,0 STARLINK-5922,1 55925U 23037M   23171.26521595  .00000185  00000-0  23278-4 0  9990,2 55925  69.9994 289.1518 0003332 269.4038  90.6739 14.98326116 15024,6950.205,96.107,574.386,569.754,0.0
55925.0,STARLINK-5922,PAYLOAD,2023-06-20 17:34:51,14.98328708,0.0003465,69.9993,287.9729,269.065,91.0112,-2.8292e-05,-4.31e-06,0.0,0 STARLINK-5922,1 55925U 23037M   23171.73253486 -.00000431  00000-0 -28292-4 0  9990,2 55925  69.9993 287.9729 0003465 269.0650  91.0112 14.98328708 14754,6950.197,96.107,574.47,569.654,0.0
55925.0,STARLINK-5922,PAYLOAD,2023-06-21 01:35:30,14.98341497,0.0003574,70.0,287.1312,263.3668,96.7084,-0.0002323,-2.865e-05,0.0,0 STARLINK-5922,1 55925U 23037M   23172.06633077 -.00002865  00000-0 -23230-3 0  9994,2 55925  70.0000 287.1312 0003574 263.3668  96.7084 14.98341497 15147,6950.157,96.106,574.506,569.538,0.0
55925.0,STARLINK-5922,PAYLOAD,2023-06-21 14:24:35,14.98335368,0.0003581,69.9993,285.7851,270.9317,89.1432,7.6004e-06,-2e-08,0.0,0 STARLINK-5922,1 55925U 23037M   23172.60040880 -.00000002  00000-0  76004-5 0  9997,2 55925  69.9993 285.7851 0003581 270.9317  89.1432 14.98335368 14883,6950.176,96.107,574.53,569.552,0.0
55925.0,STARLINK-5922,PAYLOAD,2023-06-21 17:36:51,14.98336952,0.000336,69.9996,285.4482,267.9965,92.0809,8.9392e-06,1.4e-07,0.0,0 STARLINK-5922,1 55925U 23037M   23172.73392739  .00000014  00000-0  89392-5 0  9990,2 55925  69.9996 285.4482 0003360 267.9965  92.0809 14.98336952 14907,6950.171,96.107,574.372,569.701,0.0
55925.0,STARLINK-5922,PAYLOAD,2023-06-22 09:38:12,14.98327026,0.0003396,69.9997,283.7651,267.6145,92.4626,-4.5517e-08,-9.4e-07,0.0,0 STARLINK-5922,1 55925U 23037M   23173.40153301 -.00000094  00000-0 -45517-7 0  9998,2 55925  69.9997 283.7651 0003396 267.6145  92.4626 14.98327026 15345,6950.202,96.107,574.427,569.707,0.0
55925.0,STARLINK-5922,PAYLOAD,2023-06-23 09:40:13,14.98332602,0.0003413,69.9998,281.2405,268.2827,91.7941,1.9771e-05,1.43e-06,0.0,0 STARLINK-5922,1 55925U 23037M   23174.40292849  .00000143  00000-0  19771-4 0  9993,2 55925  69.9998 281.2405 0003413 268.2827  91.7941 14.98332602 15494,6950.185,96.107,574.422,569.678,0.0
55925.0,STARLINK-5922,PAYLOAD,2023-06-24 08:06:06,14.98326533,0.0003408,69.9996,278.8842,273.9607,86.1162,5.1849e-06,-3.1e-07,0.0,0 STARLINK-5922,1 55925U 23037M   23175.33757145 -.00000031  00000-0  51849-5 0  9991,2 55925  69.9996 278.8842 0003408 273.9607  86.1162 14.98326533 15637,6950.204,96.107,574.437,569.7,0.0
55925.0,STARLINK-5922,PAYLOAD,2023-06-25 09:44:15,14.98329501,0.0003375,69.9995,276.1907,271.2656,88.8116,-1.1233e-05,-2.27e-06,0.0,0 STARLINK-5922,1 55925U 23037M   23176.40573019 -.00000227  00000-0 -11233-4 0  9996,2 55925  69.9995 276.1907 0003375 271.2656  88.8116 14.98329501 15790,6950.194,96.107,574.405,569.714,0.0
55925.0,STARLINK-5922,PAYLOAD,2023-06-26 09:46:16,14.9832158,0.000332,69.9996,273.6659,268.7326,91.3453,8.0819e-06,3e-08,0.0,0 STARLINK-5922,1 55925U 23037M   23177.40713524  .00000003  00000-0  80819-5 0  9991,2 55925  69.9996 273.6659 0003320 268.7326  91.3453 14.98321580 15941,6950.219,96.108,574.391,569.776,0.0
55925.0,STARLINK-5922,PAYLOAD,2023-06-27 11:24:23,14.98349745,0.0003568,69.9987,270.972,267.983,92.092,0.00015844,1.799e-05,0.0,0 STARLINK-5922,1 55925U 23037M   23178.47526910  .00001799  00000-0  15844-3 0  9997,2 55925  69.9987 270.9720 0003568 267.9830  92.0920 14.98349745 16104,6950.132,96.106,574.477,569.517,0.0
55925.0,STARLINK-5922,PAYLOAD,2023-06-28 05:01:52,14.98326811,0.0003174,70.0021,269.1266,261.2611,98.8188,0.00018356,2.098e-05,0.0,0 STARLINK-5922,1 55925U 23037M   23179.20963635  .00002098  00000-0  18356-3 0  9992,2 55925  70.0021 269.1266 0003174 261.2611  98.8188 14.98326811 16219,6950.203,96.107,574.274,569.862,0.0
55925.0,STARLINK-5922,PAYLOAD,2023-06-28 09:50:17,14.98318977,0.0003647,69.9989,268.6161,270.9428,89.1313,-6.3956e-05,-8.56e-06,0.0,0 STARLINK-5922,1 55925U 23037M   23179.40992999 -.00000856  00000-0 -63956-4 0  9998,2 55925  69.9989 268.6161 0003647 270.9428  89.1313 14.98318977 16245,6950.227,96.108,574.627,569.557,0.0
55925.0,STARLINK-5922,PAYLOAD,2023-06-29 09:52:18,14.98333933,0.0003552,69.9991,266.0911,268.8476,91.2276,-0.00017864,-2.224e-05,0.0,0 STARLINK-5922,1 55925U 23037M   23180.41132567 -.00002224  00000-0 -17864-3 0  9995,2 55925  69.9991 266.0911 0003552 268.8476  91.2276 14.98333933 16394,6950.181,96.107,574.514,569.577,0.0
55925.0,STARLINK-5922,PAYLOAD,2023-06-30 14:42:43,14.9832342,0.0003495,69.9994,263.0611,272.5353,87.5406,0.00017321,1.974e-05,0.0,0 STARLINK-5922,1 55925U 23037M   23181.61300379  .00001974  00000-0  17321-3 0  9993,2 55925  69.9994 263.0611 0003495 272.5353  87.5406 14.98323420 16576,6950.213,96.107,574.507,569.649,0.0
55925.0,STARLINK-5922,PAYLOAD,2023-07-01 14:44:45,14.98325601,0.0003425,69.9995,260.5362,270.5157,89.561,-1.3217e-06,-1.09e-06,0.0,0 STARLINK-5922,1 55925U 23037M   23182.61441010 -.00000109  00000-0 -13217-5 0  9995,2 55925  69.9995 260.5362 0003425 270.5157  89.5610 14.98325601 16724,6950.206,96.107,574.452,569.691,0.0
55925.0,STARLINK-5922,PAYLOAD,2023-07-02 14:46:45,14.98329806,0.0003553,69.9994,258.0109,270.0909,89.9842,2.302e-06,-6.6e-07,0.0,0 STARLINK-5922,1 55925U 23037M   23183.61580788 -.00000066  00000-0  23020-5 0  9996,2 55925  69.9994 258.0109 0003553 270.0909  89.9842 14.98329806 16874,6950.193,96.107,574.528,569.589,0.0
55925.0,STARLINK-5922,PAYLOAD,2023-07-03 14:48:46,14.98335389,0.0003676,69.9992,255.4865,270.3735,89.7003,8.3411e-05,9.02e-06,0.0,0 STARLINK-5922,1 55925U 23037M   23184.61720032  .00000902  00000-0  83411-4 0  9992,2 55925  69.9992 255.4865 0003676 270.3735  89.7003 14.98335389 17026,6950.176,96.107,574.596,569.486,0.0
55925.0,STARLINK-5922,PAYLOAD,2023-07-04 11:38:31,14.98328482,0.0003629,69.9993,253.2983,270.1272,89.9471,-2.5381e-05,-3.96e-06,0.0,0 STARLINK-5922,1 55925U 23037M   23185.48508736 -.00000396  00000-0 -25381-4 0  9994,2 55925  69.9993 253.2983 0003629 270.1272  89.9471 14.98328482 17157,6950.198,96.107,574.585,569.54,0.0
55925.0,STARLINK-5922,PAYLOAD,2023-07-05 13:16:40,14.98331614,0.0003545,69.9997,250.6058,269.0144,91.0609,-4.8118e-05,-6.67e-06,0.0,0 STARLINK-5922,1 55925U 23037M   23186.55324488 -.00000667  00000-0 -48118-4 0  9997,2 55925  69.9997 250.6058 0003545 269.0144  91.0609 14.98331614 17313,6950.188,96.107,574.517,569.589,0.0
55925.0,STARLINK-5922,PAYLOAD,2023-07-06 13:18:41,14.98329139,0.0003658,69.9993,248.0806,268.4907,91.5833,2.2645e-05,1.77e-06,0.0,0 STARLINK-5922,1 55925U 23037M   23187.55464397  .00000177  00000-0  22645-4 0  9993,2 55925  69.9993 248.0806 0003658 268.4907  91.5833 14.98329139 17465,6950.196,96.107,574.603,569.518,0.0
55925.0,STARLINK-5922,PAYLOAD,2023-07-07 13:20:41,14.98332848,0.000371,69.9993,245.556,269.2118,90.8616,2.7796e-05,2.39e-06,0.0,0 STARLINK-5922,1 55925U 23037M   23188.55604058  .00000239  00000-0  27796-4 0  9995,2 55925  69.9993 245.5560 0003710 269.2118  90.8616 14.98332848 17615,6950.184,96.107,574.628,569.471,0.0
55925.0,STARLINK-5922,PAYLOAD,2023-07-08 13:22:42,14.98331428,0.0003783,69.9992,243.0301,268.7441,91.3285,-3.071e-06,-1.3e-06,0.0,0 STARLINK-5922,1 55925U 23037M   23189.55744119 -.00000130  00000-0 -30710-5 0  9992,2 55925  69.9992 243.0301 0003783 268.7441  91.3285 14.98331428 17760,6950.188,96.107,574.683,569.424,0.0
55925.0,STARLINK-5922,PAYLOAD,2023-07-09 13:24:43,14.9833723,0.0003817,69.9993,240.5057,270.9877,89.0845,3.8843e-05,3.7e-06,0.0,0 STARLINK-5922,1 55925U 23037M   23190.55883461  .00000370  00000-0  38843-4 0  9996,2 55925  69.9993 240.5057 0003817 270.9877  89.0845 14.98337230 17917,6950.171,96.107,574.688,569.383,0.0
55925.0,STARLINK-5922,PAYLOAD,2023-07-10 10:14:28,14.98338325,0.0003171,69.9995,238.3175,261.9331,98.1469,-0.00022998,-2.837e-05,0.0,0 STARLINK-5922,1 55925U 23037M   23191.42672075 -.00002837  00000-0 -22998-3 0  9995,2 55925  69.9995 238.3175 0003171 261.9331  98.1469 14.98338325 18047,6950.167,96.106,574.236,569.828,0.0
